start=new Date('2023-06-11T00:00:00.000Z').valueOf();
sats=[{"BSTAR":"0.00001235100000","MEAN_MOTION_DDOT":"0.0000000000000","MEAN_MOTION":"15.08835757","PERIAPSIS":"538.555","OBJECT_NAME":"STARLINK-4631","RCS_SIZE":"LARGE","OBJECT_ID":"2022-111P","EPOCH":"2023-06-10T19:54:23.231520","TLE_LINE2":"2 53786  53.2171  85.8984 0001740  93.7674 266.3517 15.08835757 42443","INCLINATION":"53.2171","CLASSIFICATION_TYPE":"U","SEMIMAJOR_AXIS":"6917.893","ELEMENT_SET_NO":"999","APOAPSIS":"540.962","MEAN_MOTION_DOT":"-0.00000092","COUNTRY_CODE":"US","RA_OF_ASC_NODE":"85.8984","TLE_LINE1":"1 53786U 22111P   23161.82943555 -.00000092  00000-0  12351-4 0  9998","ECCENTRICITY":"0.00017400","PERIOD":"95.438","OBJECT_TYPE":"PAYLOAD","MEAN_ELEMENT_THEORY":"SGP4","LAUNCH_DATE":"2022-09-11","SITE":"AFETR","FILE":"3929969","EPHEMERIS_TYPE":"0","ARG_OF_PERICENTER":"93.7674","MEAN_ANOMALY":"266.3517","REV_AT_EPOCH":"4244","TIME_SYSTEM":"UTC","GP_ID":"233654851","CENTER_NAME":"EARTH","DECAY_DATE":null,"REF_FRAME":"TEME","NORAD_CAT_ID":"53786"},{"CLASSIFICATION_TYPE":"U","EPOCH":"2023-06-10T20:23:29.597568","TLE_LINE2":"2 53787  53.2174  95.8858 0001371 101.1084 259.0063 15.08832042 42301","INCLINATION":"53.2174","OBJECT_ID":"2022-111Q","RCS_SIZE":"LARGE","MEAN_MOTION":"15.08832042","PERIAPSIS":"538.821","OBJECT_NAME":"STARLINK-4743","MEAN_MOTION_DDOT":"0.0000000000000","BSTAR":"-0.00001728100000","RA_OF_ASC_NODE":"95.8858","TLE_LINE1":"1 53787U 22111Q   23161.84964812 -.00000563  00000-0 -17281-4 0  9991","COUNTRY_CODE":"US","MEAN_MOTION_DOT":"-0.00000563","APOAPSIS":"540.718","ELEMENT_SET_NO":"999","SEMIMAJOR_AXIS":"6917.905","MEAN_ANOMALY":"259.0063","ARG_OF_PERICENTER":"101.1084","EPHEMERIS_TYPE":"0","SITE":"AFETR","FILE":"3929969","OBJECT_TYPE":"PAYLOAD","MEAN_ELEMENT_THEORY":"SGP4","LAUNCH_DATE":"2022-09-11","ECCENTRICITY":"0.00013710","PERIOD":"95.438","REF_FRAME":"TEME","NORAD_CAT_ID":"53787","DECAY_DATE":null,"CENTER_NAME":"EARTH","GP_ID":"233655596","REV_AT_EPOCH":"4230","TIME_SYSTEM":"UTC"},{"TIME_SYSTEM":"UTC","REV_AT_EPOCH":"4229","CENTER_NAME":"EARTH","GP_ID":"233653850","DECAY_DATE":null,"NORAD_CAT_ID":"53789","REF_FRAME":"TEME","PERIOD":"95.438","ECCENTRICITY":"0.00011790","MEAN_ELEMENT_THEORY":"SGP4","LAUNCH_DATE":"2022-09-11","OBJECT_TYPE":"PAYLOAD","FILE":"3929969","SITE":"AFETR","EPHEMERIS_TYPE":"0","ARG_OF_PERICENTER":"101.2126","MEAN_ANOMALY":"258.8999","SEMIMAJOR_AXIS":"6917.885","ELEMENT_SET_NO":"999","APOAPSIS":"540.565","MEAN_MOTION_DOT":"-0.00000751","COUNTRY_CODE":"US","TLE_LINE1":"1 53789U 22111S   23161.83859121 -.00000751  00000-0 -29111-4 0  9992","RA_OF_ASC_NODE":"95.8148","BSTAR":"-0.00002911100000","MEAN_MOTION_DDOT":"0.0000000000000","OBJECT_NAME":"STARLINK-4666","PERIAPSIS":"538.934","MEAN_MOTION":"15.08838645","RCS_SIZE":"LARGE","OBJECT_ID":"2022-111S","TLE_LINE2":"2 53789  53.2161  95.8148 0001179 101.2126 258.8999 15.08838645 42293","INCLINATION":"53.2161","EPOCH":"2023-06-10T20:07:34.280544","CLASSIFICATION_TYPE":"U"},{"MEAN_ANOMALY":"266.1860","ARG_OF_PERICENTER":"93.9267","EPHEMERIS_TYPE":"0","SITE":"AFETR","FILE":"3929969","OBJECT_TYPE":"PAYLOAD","LAUNCH_DATE":"2022-09-11","MEAN_ELEMENT_THEORY":"SGP4","ECCENTRICITY":"0.00011830","PERIOD":"95.438","REF_FRAME":"TEME","NORAD_CAT_ID":"53790","DECAY_DATE":null,"GP_ID":"233654100","CENTER_NAME":"EARTH","REV_AT_EPOCH":"4230","TIME_SYSTEM":"UTC","CLASSIFICATION_TYPE":"U","EPOCH":"2023-06-10T20:28:48.074016","TLE_LINE2":"2 53790  53.2161  95.9058 0001183  93.9267 266.1860 15.08835947 42307","INCLINATION":"53.2161","OBJECT_ID":"2022-111T","RCS_SIZE":"LARGE","PERIAPSIS":"538.939","MEAN_MOTION":"15.08835947","OBJECT_NAME":"STARLINK-4734","MEAN_MOTION_DDOT":"0.0000000000000","BSTAR":"-0.00006546000000","RA_OF_ASC_NODE":"95.9058","TLE_LINE1":"1 53790U 22111T   23161.85333419 -.00001329  00000-0 -65460-4 0  9992","COUNTRY_CODE":"US","MEAN_MOTION_DOT":"-0.00001329","APOAPSIS":"540.576","ELEMENT_SET_NO":"999","SEMIMAJOR_AXIS":"6917.893"},{"CLASSIFICATION_TYPE":"U","TLE_LINE2":"2 53792  53.2164  95.8591 0001211  97.2867 262.8263 15.08836528 42292","INCLINATION":"53.2164","EPOCH":"2023-06-10T20:18:11.263680","OBJECT_ID":"2022-111V","RCS_SIZE":"LARGE","OBJECT_NAME":"STARLINK-4739","MEAN_MOTION":"15.08836528","PERIAPSIS":"538.918","MEAN_MOTION_DDOT":"0.0000000000000","BSTAR":"-0.00004162900000","TLE_LINE1":"1 53792U 22111V   23161.84596370 -.00000950  00000-0 -41629-4 0  9990","RA_OF_ASC_NODE":"95.8591","MEAN_MOTION_DOT":"-0.00000950","COUNTRY_CODE":"US","APOAPSIS":"540.594","ELEMENT_SET_NO":"999","SEMIMAJOR_AXIS":"6917.891","MEAN_ANOMALY":"262.8263","ARG_OF_PERICENTER":"97.2867","EPHEMERIS_TYPE":"0","FILE":"3929969","SITE":"AFETR","MEAN_ELEMENT_THEORY":"SGP4","LAUNCH_DATE":"2022-09-11","OBJECT_TYPE":"PAYLOAD","PERIOD":"95.438","ECCENTRICITY":"0.00012110","NORAD_CAT_ID":"53792","REF_FRAME":"TEME","DECAY_DATE":null,"GP_ID":"233655351","CENTER_NAME":"EARTH","TIME_SYSTEM":"UTC","REV_AT_EPOCH":"4229"},{"REV_AT_EPOCH":"4229","TIME_SYSTEM":"UTC","DECAY_DATE":null,"CENTER_NAME":"EARTH","GP_ID":"233655097","REF_FRAME":"TEME","NORAD_CAT_ID":"53793","ECCENTRICITY":"0.00004280","PERIOD":"95.439","SITE":"AFETR","FILE":"3929969","OBJECT_TYPE":"PAYLOAD","MEAN_ELEMENT_THEORY":"SGP4","LAUNCH_DATE":"2022-09-11","EPHEMERIS_TYPE":"0","MEAN_ANOMALY":"241.7383","ARG_OF_PERICENTER":"118.3652","ELEMENT_SET_NO":"999","SEMIMAJOR_AXIS":"6917.937","MEAN_MOTION_DOT":"-0.00000465","COUNTRY_CODE":"US","APOAPSIS":"540.098","RA_OF_ASC_NODE":"95.8445","TLE_LINE1":"1 53793U 22111W   23161.84325180 -.00000465  00000-0 -11146-4 0  9992","MEAN_MOTION_DDOT":"0.0000000000000","BSTAR":"-0.00001114600000","RCS_SIZE":"LARGE","PERIAPSIS":"539.506","MEAN_MOTION":"15.08821468","OBJECT_NAME":"STARLINK-4728","OBJECT_ID":"2022-111W","CLASSIFICATION_TYPE":"U","EPOCH":"2023-06-10T20:14:16.955520","INCLINATION":"53.2170","TLE_LINE2":"2 53793  53.2170  95.8445 0000428 118.3652 241.7383 15.08821468 42290"},{"EPHEMERIS_TYPE":"0","MEAN_ANOMALY":"275.8782","ARG_OF_PERICENTER":"84.2345","ECCENTRICITY":"0.00011860","PERIOD":"95.438","SITE":"AFETR","FILE":"3929709","OBJECT_TYPE":"PAYLOAD","LAUNCH_DATE":"2022-09-11","MEAN_ELEMENT_THEORY":"SGP4","REF_FRAME":"TEME","NORAD_CAT_ID":"53794","REV_AT_EPOCH":"4224","TIME_SYSTEM":"UTC","DECAY_DATE":null,"CENTER_NAME":"EARTH","GP_ID":"233621030","OBJECT_ID":"2022-111X","CLASSIFICATION_TYPE":"U","EPOCH":"2023-06-10T12:27:56.271456","INCLINATION":"53.2166","TLE_LINE2":"2 53794  53.2166  97.3708 0001186  84.2345 275.8782 15.08836748 42240","MEAN_MOTION_DDOT":"0.0000000000000","BSTAR":"0.00003957200000","RCS_SIZE":"LARGE","MEAN_MOTION":"15.08836748","PERIAPSIS":"538.935","OBJECT_NAME":"STARLINK-4730","RA_OF_ASC_NODE":"97.3708","TLE_LINE1":"1 53794U 22111X   23161.51940129  .00000342  00000-0  39572-4 0  9998","ELEMENT_SET_NO":"999","SEMIMAJOR_AXIS":"6917.890","MEAN_MOTION_DOT":"0.00000342","COUNTRY_CODE":"US","APOAPSIS":"540.576"},{"ECCENTRICITY":"0.00012530","PERIOD":"95.438","SITE":"AFETR","FILE":"3929709","OBJECT_TYPE":"PAYLOAD","LAUNCH_DATE":"2022-09-11","MEAN_ELEMENT_THEORY":"SGP4","EPHEMERIS_TYPE":"0","MEAN_ANOMALY":"265.5265","ARG_OF_PERICENTER":"94.5870","REV_AT_EPOCH":"4220","TIME_SYSTEM":"UTC","DECAY_DATE":null,"CENTER_NAME":"EARTH","GP_ID":"233622281","REF_FRAME":"TEME","NORAD_CAT_ID":"53795","MEAN_MOTION_DDOT":"0.0000000000000","BSTAR":"0.00004161900000","RCS_SIZE":"LARGE","PERIAPSIS":"538.882","MEAN_MOTION":"15.08838868","OBJECT_NAME":"STARLINK-4742","OBJECT_ID":"2022-111Y","CLASSIFICATION_TYPE":"U","EPOCH":"2023-06-10T05:43:47.330400","TLE_LINE2":"2 53795  53.2176  98.4694 0001253  94.5870 265.5265 15.08838868 42203","INCLINATION":"53.2176","ELEMENT_SET_NO":"999","SEMIMAJOR_AXIS":"6917.884","COUNTRY_CODE":"US","MEAN_MOTION_DOT":"0.00000375","APOAPSIS":"540.616","RA_OF_ASC_NODE":"98.4694","TLE_LINE1":"1 53795U 22111Y   23161.23874225  .00000375  00000-0  41619-4 0  9992"},{"RA_OF_ASC_NODE":"76.0506","TLE_LINE1":"1 53796U 22111Z   23161.77417933 -.00000365  00000-0 -48243-5 0  9993","COUNTRY_CODE":"US","MEAN_MOTION_DOT":"-0.00000365","APOAPSIS":"540.540","ELEMENT_SET_NO":"999","SEMIMAJOR_AXIS":"6917.885","CLASSIFICATION_TYPE":"U","EPOCH":"2023-06-10T18:34:49.094112","TLE_LINE2":"2 53796  53.2178  76.0506 0001142 102.3229 257.7891 15.08838492 42596","INCLINATION":"53.2178","OBJECT_ID":"2022-111Z","RCS_SIZE":"LARGE","MEAN_MOTION":"15.08838492","PERIAPSIS":"538.960","OBJECT_NAME":"STARLINK-4721","MEAN_MOTION_DDOT":"0.0000000000000","BSTAR":"-0.00000482430000","REF_FRAME":"TEME","NORAD_CAT_ID":"53796","DECAY_DATE":null,"GP_ID":"233654852","CENTER_NAME":"EARTH","REV_AT_EPOCH":"4259","TIME_SYSTEM":"UTC","MEAN_ANOMALY":"257.7891","ARG_OF_PERICENTER":"102.3229","EPHEMERIS_TYPE":"0","SITE":"AFETR","FILE":"3929969","OBJECT_TYPE":"PAYLOAD","MEAN_ELEMENT_THEORY":"SGP4","LAUNCH_DATE":"2022-09-11","ECCENTRICITY":"0.00011420","PERIOD":"95.438"},{"NORAD_CAT_ID":"53797","REF_FRAME":"TEME","DECAY_DATE":null,"CENTER_NAME":"EARTH","GP_ID":"233655597","TIME_SYSTEM":"UTC","REV_AT_EPOCH":"4228","MEAN_ANOMALY":"261.7219","ARG_OF_PERICENTER":"98.3932","EPHEMERIS_TYPE":"0","FILE":"3929969","SITE":"AFETR","MEAN_ELEMENT_THEORY":"SGP4","LAUNCH_DATE":"2022-09-11","OBJECT_TYPE":"PAYLOAD","PERIOD":"95.438","ECCENTRICITY":"0.00013970","TLE_LINE1":"1 53797U 22111AA  23161.82385219 -.00000029  00000-0  16284-4 0  9996","RA_OF_ASC_NODE":"95.7217","COUNTRY_CODE":"US","MEAN_MOTION_DOT":"-0.00000029","APOAPSIS":"540.727","ELEMENT_SET_NO":"999","SEMIMAJOR_AXIS":"6917.895","CLASSIFICATION_TYPE":"U","TLE_LINE2":"2 53797  53.2170  95.7217 0001397  98.3932 261.7219 15.08835077 42284","INCLINATION":"53.2170","EPOCH":"2023-06-10T19:46:20.829216","OBJECT_ID":"2022-111AA","RCS_SIZE":"LARGE","OBJECT_NAME":"STARLINK-4723","PERIAPSIS":"538.794","MEAN_MOTION":"15.08835077","MEAN_MOTION_DDOT":"0.0000000000000","BSTAR":"0.00001628400000"}];
